[{"OBJECT_NAME":"STARLINK-34087","OBJECT_ID":"2025-102C","EPOCH":"2026-03-09T13:10:45.494688","MEAN_MOTION":14.98330478,"ECCENTRICITY":0.00033669,"INCLINATION":70.001,"RA_OF_ASC_NODE":114.7097,"ARG_OF_PERICENTER":269.4069,"MEAN_ANOMALY":90.6704,"EPHEMERIS_TYPE":0,"CLASSIFICATION_TYPE":"U","NORAD_CAT_ID":64024,"ELEMENT_SET_NO":999,"REV_AT_EPOCH":4582,"BSTAR":4.3702647e-5,"MEAN_MOTION_DOT":4.28e-6,"MEAN_MOTION_DDOT":0},{"OBJECT_NAME":"FENGYUN 1C DEB","OBJECT_ID":"1999-025AEY","EPOCH":"2026-03-09T19:16:38.619264","MEAN_MOTION":14.92699645,"ECCENTRICITY":0.00328142,"INCLINATION":98.9116,"RA_OF_ASC_NODE":104.6855,"ARG_OF_PERICENTER":181.0852,"MEAN_ANOMALY":235.9591,"EPHEMERIS_TYPE":0,"CLASSIFICATION_TYPE":"U","NORAD_CAT_ID":30437,"ELEMENT_SET_NO":999,"REV_AT_EPOCH":482,"BSTAR":0.0024447577,"MEAN_MOTION_DOT":0.00025496,"MEAN_MOTION_DDOT":0}]
